ONEWEB-0267             
1 48985U 21060U   24302.86863413  .00000038  00000+0  64979-4 0  9992
2 48985  87.9124 347.5665 0002189  94.4854 265.6527 13.16595030161124
ONEWEB-0268             
1 48986U 21060V   24302.83695693 -.00000050  00000+0 -16546-3 0  9995
2 48986  87.9127 347.5792 0001980 100.3611 259.7743 13.16594122161388
ONEWEB-0269             
1 48987U 21060W   24302.89395890  .00000355  00000+0  89414-3 0  9998
2 48987  87.9133 347.5971 0001767 105.0134 255.1193 13.16591844161163
ONEWEB-0270             
1 48988U 21060X   24302.83537765  .00000115  00000+0  26755-3 0  9995
2 48988  87.9128 347.5862 0002238  87.1203 273.0184 13.16594440161195
ONEWEB-0271             
1 48989U 21060Y   24302.82271609  .00000120  00000+0  27953-3 0  9994
2 48989  87.9128 347.5669 0002227  93.6236 266.5149 13.16593354161198
ONEWEB-0272             
1 48990U 21060Z   24302.84487752 -.00000058  00000+0 -18656-3 0  9998
2 48990  87.9128 347.5927 0002131  94.6658 265.4716 13.16593935161148
ONEWEB-0273             
1 48991U 21060AA  24302.86704259  .00000042  00000+0  75702-4 0  9992
2 48991  87.9125 347.5742 0001944  90.1703 269.9650 13.16592659161120
ONEWEB-0274             
1 48992U 21060AB  24302.89237878  .00000257  00000+0  63917-3 0  9996
2 48992  87.9137 347.5918 0002230 112.1853 247.9515 13.16591968161161
